{"type": "FeatureCollection", "features": [ {"type": "Feature", "properties": {"norad_id": 34792, "name": "COSMOS 2251 DEB", "group": "cosmos-2251-debris", "lat": -23.590913705353785, "lon": 136.4469465118087, "alt_km": 712.0762869632899, "timestamp": "2025-12-26T11:25:45.585630+00:00", "meta": {"OBJECT_NAME": "COSMOS 2251 DEB", "OBJECT_ID": "1993-036AAV", "EPOCH": "2025-12-25T14:40:51.402720", "MEAN_MOTION": 14.56064533, "ECCENTRICITY": 0.0012383, "INCLINATION": 74.018, "RA_OF_ASC_NODE": 145.2771, "ARG_OF_PERICENTER": 240.3176, "MEAN_ANOMALY": 245.2413, "EPHEMERIS_TYPE": 0, "CLASSIFICATION_TYPE": "U", "NORAD_CAT_ID": 34792, "ELEMENT_SET_NO": 999, "REV_AT_EPOCH": 87837, "BSTAR": 0.0012128, "MEAN_MOTION_DOT": 5.325e-05, "MEAN_MOTION_DDOT": 0}, "tle": {"line1": "1 34792U 93036AAV 25359.61170605  .00005325  00000+0  12128-2 0  9996", "line2": "2 34792  74.0180 145.2771 0012383 240.3176 245.2413 14.56064533878375"}}, "geometry": {"type": "Point", "coordinates": [136.4469465118087, -23.590913705353785]}}, {"type": "Feature", "properties": {"norad_id": 34793, "name": "COSMOS 2251 DEB", "group": "cosmos-2251-debris", "lat": -22.92125631880751, "lon": -141.97843424963204, "alt_km": 739.839341517024, "timestamp": "2025-12-26T11:25:45.585639+00:00", "meta": {"OBJECT_NAME": "COSMOS 2251 DEB", "OBJECT_ID": "1993-036AAW", "EPOCH": "2025-12-25T19:24:04.961664", "MEAN_MOTION": 14.38664126, "ECCENTRICITY": 0.00508769, "INCLINATION": 74.0015, "RA_OF_ASC_NODE": 226.2232, "ARG_OF_PERICENTER": 17.0479, "MEAN_ANOMALY": 102.0932, "EPHEMERIS_TYPE": 0, "CLASSIFICATION_TYPE": "U", "NORAD_CAT_ID": 34793, "ELEMENT_SET_NO": 999, "REV_AT_EPOCH": 87518, "BSTAR": 0.00021915048, "MEAN_MOTION_DOT": 6.55e-06, "MEAN_MOTION_DDOT": 0}, "tle": {"line1": "1 34793U 93036AAW 25359.80839076  .00000655  00000+0  21915-3 0  9998", "line2": "2 34793  74.0015 226.2232 0050876  17.0479 102.0932 14.38664126875185"}}, "geometry": {"type": "Point", "coordinates": [-141.97843424963204, -22.92125631880751]}}, {"type": "Feature", "properties": {"norad_id": 34796, "name": "COSMOS 2251 DEB", "group": "cosmos-2251-debris", "lat": -25.701932798348487, "lon": 18.5128255562995, "alt_km": 725.5734602255616, "timestamp": "2025-12-26T11:25:45.585648+00:00", "meta": {"OBJECT_NAME": "COSMOS 2251 DEB", "OBJECT_ID": "1993-036AAZ", "EPOCH": "2025-12-25T13:03:59.133024", "MEAN_MOTION": 14.48745914, "ECCENTRICITY": 0.0100284, "INCLINATION": 74.0282, "RA_OF_ASC_NODE": 192.3362, "ARG_OF_PERICENTER": 291.6358, "MEAN_ANOMALY": 98.4563, "EPHEMERIS_TYPE": 0, "CLASSIFICATION_TYPE": "U", "NORAD_CAT_ID": 34796, "ELEMENT_SET_NO": 999, "REV_AT_EPOCH": 88213, "BSTAR": 0.00055203, "MEAN_MOTION_DOT": 2.189e-05, "MEAN_MOTION_DDOT": 0}, "tle": {"line1": "1 34796U 93036AAZ 25359.54443441  .00002189  00000+0  55203-3 0  9990", "line2": "2 34796  74.0282 192.3362 0100284 291.6358  98.4563 14.48745914882133"}}, "geometry": {"type": "Point", "coordinates": [18.5128255562995, -25.701932798348487]}}, {"type": "Feature", "properties": {"norad_id": 34797, "name": "COSMOS 2251 DEB", "group": "cosmos-2251-debris", "lat": 41.68702401880469, "lon": 89.21917625178901, "alt_km": 784.3476193837832, "timestamp": "2025-12-26T11:25:45.585658+00:00", "meta": {"OBJECT_NAME": "COSMOS 2251 DEB", "OBJECT_ID": "1993-036ABA", "EPOCH": "2025-12-22T12:22:54.757056", "MEAN_MOTION": 14.42950692, "ECCENTRICITY": 0.00710542, "INCLINATION": 73.9783, "RA_OF_ASC_NODE": 81.7691, "ARG_OF_PERICENTER": 193.6898, "MEAN_ANOMALY": 166.2334, "EPHEMERIS_TYPE": 0, "CLASSIFICATION_TYPE": "U", "NORAD_CAT_ID": 34797, "ELEMENT_SET_NO": 999, "REV_AT_EPOCH": 87556, "BSTAR": 0.0021692417, "MEAN_MOTION_DOT": 7.461e-05, "MEAN_MOTION_DDOT": 0}, "tle": {"line1": "1 34797U 93036ABA 25356.51591154  .00007461  00000+0  21692-2 0  9992", "line2": "2 34797  73.9783  81.7691 0071054 193.6898 166.2334 14.42950692875560"}}, "geometry": {"type": "Point", "coordinates": [89.21917625178901, 41.68702401880469]}}, {"type": "Feature", "properties": {"norad_id": 34814, "name": "COSMOS 2251 DEB", "group": "cosmos-2251-debris", "lat": 73.8527699445506, "lon": 33.75925249985756, "alt_km": 764.8130165383473, "timestamp": "2025-12-26T11:25:45.585667+00:00", "meta": {"OBJECT_NAME": "COSMOS 2251 DEB", "OBJECT_ID": "1993-036ABD", "EPOCH": "2025-12-23T04:46:16.254336", "MEAN_MOTION": 14.3693492, "ECCENTRICITY": 0.00554769, "INCLINATION": 73.8962, "RA_OF_ASC_NODE": 306.0405, "ARG_OF_PERICENTER": 193.3771, "MEAN_ANOMALY": 230.9861, "EPHEMERIS_TYPE": 0, "CLASSIFICATION_TYPE": "U", "NORAD_CAT_ID": 34814, "ELEMENT_SET_NO": 999, "REV_AT_EPOCH": 87483, "BSTAR": 0.00068608274, "MEAN_MOTION_DOT": 2.041e-05, "MEAN_MOTION_DDOT": 0}, "tle": {"line1": "1 34814U 93036ABD 25357.19879924  .00002041  00000+0  68608-3 0  9999", "line2": "2 34814  73.8962 306.0405 0055476 193.3771 230.9861 14.36934920874833"}}, "geometry": {"type": "Point", "coordinates": [33.75925249985756, 73.8527699445506]}}, {"type": "Feature", "properties": {"norad_id": 34815, "name": "COSMOS 2251 DEB", "group": "cosmos-2251-debris", "lat": 42.70897564753567, "lon": 19.51299926491435, "alt_km": 664.3638904702348, "timestamp": "2025-12-26T11:25:45.585676+00:00", "meta": {"OBJECT_NAME": "COSMOS 2251 DEB", "OBJECT_ID": "1993-036ABE", "EPOCH": "2025-12-26T01:04:19.229664", "MEAN_MOTION": 14.78457194, "ECCENTRICITY": 0.0058677, "INCLINATION": 74.044, "RA_OF_ASC_NODE": 215.6734, "ARG_OF_PERICENTER": 281.9986, "MEAN_ANOMALY": 77.4616, "EPHEMERIS_TYPE": 0, "CLASSIFICATION_TYPE": "U", "NORAD_CAT_ID": 34815, "ELEMENT_SET_NO": 999, "REV_AT_EPOCH": 88824, "BSTAR": 0.00072446, "MEAN_MOTION_DOT": 5.407e-05, "MEAN_MOTION_DDOT": 0}, "tle": {"line1": "1 34815U 93036ABE 25360.04466701  .00005407  00000+0  72446-3 0  9997", "line2": "2 34815  74.0440 215.6734 0058677 281.9986  77.4616 14.78457194888247"}}, "geometry": {"type": "Point", "coordinates": [19.51299926491435, 42.70897564753567]}}, {"type": "Feature", "properties": {"norad_id": 34816, "name": "COSMOS 2251 DEB", "group": "cosmos-2251-debris", "lat": -70.90159058793965, "lon": 64.11572552853292, "alt_km": 1074.9598254012653, "timestamp": "2025-12-26T11:25:45.585685+00:00", "meta": {"OBJECT_NAME": "COSMOS 2251 DEB", "OBJECT_ID": "1993-036ABF", "EPOCH": "2025-12-25T01:06:13.254336", "MEAN_MOTION": 13.58358364, "ECCENTRICITY": 0.03729236, "INCLINATION": 73.8874, "RA_OF_ASC_NODE": 123.043, "ARG_OF_PERICENTER": 185.3949, "MEAN_ANOMALY": 299.3527, "EPHEMERIS_TYPE": 0, "CLASSIFICATION_TYPE": "U", "NORAD_CAT_ID": 34816, "ELEMENT_SET_NO": 999, "REV_AT_EPOCH": 82950, "BSTAR": 0.0014772062, "MEAN_MOTION_DOT": 1.67e-05, "MEAN_MOTION_DDOT": 0}, "tle": {"line1": "1 34816U 93036ABF 25359.04598674  .00001670  00000+0  14772-2 0  9996", "line2": "2 34816  73.8874 123.0430 0372923 185.3949 299.3527 13.58358364829506"}}, "geometry": {"type": "Point", "coordinates": [64.11572552853292, -70.90159058793965]}}, {"type": "Feature", "properties": {"norad_id": 34818, "name": "COSMOS 2251 DEB", "group": "cosmos-2251-debris", "lat": 13.72631390448625, "lon": 87.67387726330978, "alt_km": 786.7969850836125, "timestamp": "2025-12-26T11:25:45.585694+00:00", "meta": {"OBJECT_NAME": "COSMOS 2251 DEB", "OBJECT_ID": "1993-036ABH", "EPOCH": "2025-12-26T04:41:15.552960", "MEAN_MOTION": 14.36982494, "ECCENTRICITY": 0.0024697, "INCLINATION": 74.0365, "RA_OF_ASC_NODE": 272.1994, "ARG_OF_PERICENTER": 344.861, "MEAN_ANOMALY": 168.1819, "EPHEMERIS_TYPE": 0, "CLASSIFICATION_TYPE": "U", "NORAD_CAT_ID": 34818, "ELEMENT_SET_NO": 999, "REV_AT_EPOCH": 87563, "BSTAR": 0.00018428, "MEAN_MOTION_DOT": 5.22e-06, "MEAN_MOTION_DDOT": 0}, "tle": {"line1": "1 34818U 93036ABH 25360.19531890  .00000522  00000+0  18428-3 0  9991", "line2": "2 34818  74.0365 272.1994 0024697 344.8610 168.1819 14.36982494875632"}}, "geometry": {"type": "Point", "coordinates": [87.67387726330978, 13.72631390448625]}}, {"type": "Feature", "properties": {"norad_id": 34819, "name": "COSMOS 2251 DEB", "group": "cosmos-2251-debris", "lat": -17.2619827454387, "lon": 111.14079141771165, "alt_km": 691.3846500036834, "timestamp": "2025-12-26T11:25:45.585703+00:00", "meta": {"OBJECT_NAME": "COSMOS 2251 DEB", "OBJECT_ID": "1993-036ABJ", "EPOCH": "2025-12-25T01:52:59.959200", "MEAN_MOTION": 14.64149943, "ECCENTRICITY": 0.00152489, "INCLINATION": 74.0188, "RA_OF_ASC_NODE": 118.9364, "ARG_OF_PERICENTER": 214.0486, "MEAN_ANOMALY": 323.4712, "EPHEMERIS_TYPE": 0, "CLASSIFICATION_TYPE": "U", "NORAD_CAT_ID": 34819, "ELEMENT_SET_NO": 999, "REV_AT_EPOCH": 88409, "BSTAR": 0.0016705691, "MEAN_MOTION_DOT": 8.78e-05, "MEAN_MOTION_DDOT": 0}, "tle": {"line1": "1 34819U 93036ABJ 25359.07847175  .00008780  00000+0  16706-2 0  9993", "line2": "2 34819  74.0188 118.9364 0015248 214.0486 323.4712 14.64149943884098"}}, "geometry": {"type": "Point", "coordinates": [111.14079141771165, -17.2619827454387]}}, {"type": "Feature", "properties": {"norad_id": 34823, "name": "COSMOS 2251 DEB", "group": "cosmos-2251-debris", "lat": -55.69796254698739, "lon": 51.47702789206889, "alt_km": 802.7623681831856, "timestamp": "2025-12-26T11:25:45.585712+00:00", "meta": {"OBJECT_NAME": "COSMOS 2251 DEB", "OBJECT_ID": "1993-036ABN", "EPOCH": "2025-12-24T15:09:15.666048", "MEAN_MOTION": 14.54999461, "ECCENTRICITY": 0.01538489, "INCLINATION": 74.0415, "RA_OF_ASC_NODE": 79.7679, "ARG_OF_PERICENTER": 161.572, "MEAN_ANOMALY": 199.1106, "EPHEMERIS_TYPE": 0, "CLASSIFICATION_TYPE": "U", "NORAD_CAT_ID": 34823, "ELEMENT_SET_NO": 999, "REV_AT_EPOCH": 88554, "BSTAR": 0.00054717068, "MEAN_MOTION_DOT": 2.731e-05, "MEAN_MOTION_DDOT": 0}, "tle": {"line1": "1 34823U 93036ABN 25358.63143132  .00002731  00000+0  54717-3 0  9996", "line2": "2 34823  74.0415  79.7679 0153848 161.5720 199.1106 14.54999461885548"}}, "geometry": {"type": "Point", "coordinates": [51.47702789206889, -55.69796254698739]}}]}